{
  "type": "FeatureCollection",
  "features": [
    {
      "type": "Feature",
      "properties": {
        "norad_id": 35616,
        "name": "IRIDIUM 33 DEB",
        "group": "iridium-33-debris",
        "lat": -68.08358855768391,
        "lon": -26.60527470459085,
        "alt_km": 637.3019965181502,
        "timestamp": "2025-12-19T20:43:00.470799+00:00",
        "meta_object_name": "IRIDIUM 33 DEB",
        "meta_object_id": "1997-051QN",
        "meta_epoch": "2025-12-19T06:26:26.768832",
        "meta_mean_motion": 14.81969913,
        "meta_eccentricity": 0.00110786,
        "meta_inclination": 86.3543,
        "meta_ra_of_asc_node": 342.7845,
        "meta_arg_of_pericenter": 141.4908,
        "meta_mean_anomaly": 218.7107,
        "meta_ephemeris_type": 0,
        "meta_classification_type": "U",
        "meta_norad_cat_id": 35616,
        "meta_element_set_no": 999,
        "meta_rev_at_epoch": 87671,
        "meta_bstar": 0.0011657498,
        "meta_mean_motion_dot": 9.278e-05,
        "meta_mean_motion_ddot": 0,
        "tle_line1": "1 35616U 97051QN  25353.26836538  .00009278  00000+0  11657-2 0  9999",
        "tle_line2": "2 35616  86.3543 342.7845 0011078 141.4908 218.7107 14.81969913876715"
      },
      "geometry": {
        "type": "Point",
        "coordinates": [
          -26.60527470459085,
          -68.08358855768391
        ]
      }
    },
    {
      "type": "Feature",
      "properties": {
        "norad_id": 35618,
        "name": "IRIDIUM 33 DEB",
        "group": "iridium-33-debris",
        "lat": 19.751776325413907,
        "lon": -8.291421113705724,
        "alt_km": 699.2993512405792,
        "timestamp": "2025-12-19T20:43:00.470812+00:00",
        "meta_object_name": "IRIDIUM 33 DEB",
        "meta_object_id": "1997-051QQ",
        "meta_epoch": "2025-12-13T19:06:39.662496",
        "meta_mean_motion": 14.52305973,
        "meta_eccentricity": 0.00288889,
        "meta_inclination": 86.3427,
        "meta_ra_of_asc_node": 353.0427,
        "meta_arg_of_pericenter": 17.6332,
        "meta_mean_anomaly": 342.5869,
        "meta_ephemeris_type": 0,
        "meta_classification_type": "U",
        "meta_norad_cat_id": 35618,
        "meta_element_set_no": 999,
        "meta_rev_at_epoch": 65409,
        "meta_bstar": 0.0005678553,
        "meta_mean_motion_dot": 2.341e-05,
        "meta_mean_motion_ddot": 0,
        "tle_line1": "1 35618U 97051QQ  25347.79629239  .00002341  00000+0  56786-3 0  9997",
        "tle_line2": "2 35618  86.3427 353.0427 0028888  17.6332 342.5869 14.52305973654095"
      },
      "geometry": {
        "type": "Point",
        "coordinates": [
          -8.291421113705724,
          19.751776325413907
        ]
      }
    },
    {
      "type": "Feature",
      "properties": {
        "norad_id": 35620,
        "name": "IRIDIUM 33 DEB",
        "group": "iridium-33-debris",
        "lat": 1.43584104485765,
        "lon": -145.4599136908039,
        "alt_km": 825.0552774267753,
        "timestamp": "2025-12-19T20:43:00.470822+00:00",
        "meta_object_name": "IRIDIUM 33 DEB",
        "meta_object_id": "1997-051QS",
        "meta_epoch": "2025-12-18T07:58:30.597312",
        "meta_mean_motion": 14.38231155,
        "meta_eccentricity": 0.01396071,
        "meta_inclination": 86.3909,
        "meta_ra_of_asc_node": 215.0948,
        "meta_arg_of_pericenter": 240.37,
        "meta_mean_anomaly": 118.3533,
        "meta_ephemeris_type": 0,
        "meta_classification_type": "U",
        "meta_norad_cat_id": 35620,
        "meta_element_set_no": 999,
        "meta_rev_at_epoch": 60046,
        "meta_bstar": 0.0042608437,
        "meta_mean_motion_dot": 0.00014532,
        "meta_mean_motion_ddot": 0,
        "tle_line1": "1 35620U 97051QS  25352.33229858  .00014532  00000+0  42608-2 0  9991",
        "tle_line2": "2 35620  86.3909 215.0948 0139607 240.3700 118.3533 14.38231155600467"
      },
      "geometry": {
        "type": "Point",
        "coordinates": [
          -145.4599136908039,
          1.43584104485765
        ]
      }
    },
    {
      "type": "Feature",
      "properties": {
        "norad_id": 35622,
        "name": "IRIDIUM 33 DEB",
        "group": "iridium-33-debris",
        "lat": -0.29632384366239745,
        "lon": -99.92723470112635,
        "alt_km": 551.9117323124956,
        "timestamp": "2025-12-19T20:43:00.470834+00:00",
        "meta_object_name": "IRIDIUM 33 DEB",
        "meta_object_id": "1997-051QU",
        "meta_epoch": "2025-12-19T05:20:54.669408",
        "meta_mean_motion": 15.05391497,
        "meta_eccentricity": 0.00045227,
        "meta_inclination": 86.2027,
        "meta_ra_of_asc_node": 260.4082,
        "meta_arg_of_pericenter": 299.3181,
        "meta_mean_anomaly": 192.4503,
        "meta_ephemeris_type": 0,
        "meta_classification_type": "U",
        "meta_norad_cat_id": 35622,
        "meta_element_set_no": 999,
        "meta_rev_at_epoch": 87457,
        "meta_bstar": 0.0026049351,
        "meta_mean_motion_dot": 0.0003752,
        "meta_mean_motion_ddot": 0,
        "tle_line1": "1 35622U 97051QU  25353.22285497  .00037520  00000+0  26049-2 0  9996",
        "tle_line2": "2 35622  86.2027 260.4082 0004522 299.3181 192.4503 15.05391497874572"
      },
      "geometry": {
        "type": "Point",
        "coordinates": [
          -99.92723470112635,
          -0.29632384366239745
        ]
      }
    },
    {
      "type": "Feature",
      "properties": {
        "norad_id": 35628,
        "name": "IRIDIUM 33 DEB",
        "group": "iridium-33-debris",
        "lat": -50.69986893320594,
        "lon": 1.4339884658159214,
        "alt_km": 668.6220275604182,
        "timestamp": "2025-12-19T20:43:00.470846+00:00",
        "meta_object_name": "IRIDIUM 33 DEB",
        "meta_object_id": "1997-051RA",
        "meta_epoch": "2025-12-18T07:18:45.213408",
        "meta_mean_motion": 14.6766102,
        "meta_eccentricity": 0.00098417,
        "meta_inclination": 86.3567,
        "meta_ra_of_asc_node": 6.5937,
        "meta_arg_of_pericenter": 321.9777,
        "meta_mean_anomaly": 38.0742,
        "meta_ephemeris_type": 0,
        "meta_classification_type": "U",
        "meta_norad_cat_id": 35628,
        "meta_element_set_no": 999,
        "meta_rev_at_epoch": 86528,
        "meta_bstar": 0.0011340632,
        "meta_mean_motion_dot": 6.475e-05,
        "meta_mean_motion_ddot": 0,
        "tle_line1": "1 35628U 97051RA  25352.30468997  .00006475  00000+0  11341-2 0  9992",
        "tle_line2": "2 35628  86.3567   6.5937 0009841 321.9777  38.0742 14.67661020865285"
      },
      "geometry": {
        "type": "Point",
        "coordinates": [
          1.4339884658159214,
          -50.69986893320594
        ]
      }
    },
    {
      "type": "Feature",
      "properties": {
        "norad_id": 35631,
        "name": "IRIDIUM 33 DEB",
        "group": "iridium-33-debris",
        "lat": 44.801560541334275,
        "lon": 21.52656427778759,
        "alt_km": 722.0081574297419,
        "timestamp": "2025-12-19T20:43:00.470857+00:00",
        "meta_object_name": "IRIDIUM 33 DEB",
        "meta_object_id": "1997-051RD",
        "meta_epoch": "2025-12-17T02:23:33.513216",
        "meta_mean_motion": 14.47323174,
        "meta_eccentricity": 0.00191499,
        "meta_inclination": 86.3669,
        "meta_ra_of_asc_node": 19.0985,
        "meta_arg_of_pericenter": 104.9158,
        "meta_mean_anomaly": 310.5558,
        "meta_ephemeris_type": 0,
        "meta_classification_type": "U",
        "meta_norad_cat_id": 35631,
        "meta_element_set_no": 999,
        "meta_rev_at_epoch": 87260,
        "meta_bstar": 0.00028519596,
        "meta_mean_motion_dot": 1.066e-05,
        "meta_mean_motion_ddot": 0,
        "tle_line1": "1 35631U 97051RD  25351.09969344  .00001066  00000+0  28520-3 0  9992",
        "tle_line2": "2 35631  86.3669  19.0985 0019149 104.9158 310.5558 14.47323174872608"
      },
      "geometry": {
        "type": "Point",
        "coordinates": [
          21.52656427778759,
          44.801560541334275
        ]
      }
    },
    {
      "type": "Feature",
      "properties": {
        "norad_id": 35680,
        "name": "IRIDIUM 33 DEB",
        "group": "iridium-33-debris",
        "lat": 61.67324655163882,
        "lon": 25.634701251656214,
        "alt_km": 921.1098358944528,
        "timestamp": "2025-12-19T20:43:00.470868+00:00",
        "meta_object_name": "IRIDIUM 33 DEB",
        "meta_object_id": "1997-051RJ",
        "meta_epoch": "2025-12-17T20:16:19.922592",
        "meta_mean_motion": 14.21000805,
        "meta_eccentricity": 0.01505036,
        "meta_inclination": 86.1025,
        "meta_ra_of_asc_node": 19.2625,
        "meta_arg_of_pericenter": 262.1515,
        "meta_mean_anomaly": 279.7609,
        "meta_ephemeris_type": 0,
        "meta_classification_type": "U",
        "meta_norad_cat_id": 35680,
        "meta_element_set_no": 999,
        "meta_rev_at_epoch": 60773,
        "meta_bstar": 0.0028027984,
        "meta_mean_motion_dot": 6.829e-05,
        "meta_mean_motion_ddot": 0,
        "tle_line1": "1 35680U 97051RJ  25351.84467503  .00006829  00000+0  28028-2 0  9993",
        "tle_line2": "2 35680  86.1025  19.2625 0150503 262.1515 279.7609 14.21000805607731"
      },
      "geometry": {
        "type": "Point",
        "coordinates": [
          25.634701251656214,
          61.67324655163882
        ]
      }
    }
  ]
}